[{"id":"55151","name":"ONEWEB-0572","tle1":"1 55151U 23004M   26176.26482614  .00000024  00000+0  29456-4 0  9996","tle2":"2 55151  87.9129   4.2581 0002018  93.8111 266.3251 13.17648909168546"},{"id":"55152","name":"ONEWEB-0573","tle1":"1 55152U 23004N   26176.15788064  .00000086  00000+0  18464-3 0  9997","tle2":"2 55152  87.9167 333.8829 0002495 111.0439 249.0960 13.18686962170742"},{"id":"55153","name":"ONEWEB-0588","tle1":"1 55153U 23004P   26176.15114208  .00000086  00000+0  18491-3 0  9991","tle2":"2 55153  87.9165 333.8842 0002371  92.9950 267.1454 13.18686137170747"},{"id":"55154","name":"ONEWEB-0598","tle1":"1 55154U 23004Q   26176.09512911 -.00001621  00000+0 -46086-2 0  9996","tle2":"2 55154  87.8881  19.4939 0002042 107.9803 252.1548 13.11427026166932"},{"id":"55155","name":"ONEWEB-0599","tle1":"1 55155U 23004R   26176.22601586  .00000114  00000+0  26048-3 0  9990","tle2":"2 55155  87.9133   4.2644 0001665  94.2768 265.8553 13.17649609168542"},{"id":"55156","name":"ONEWEB-0614","tle1":"1 55156U 23004S   26176.09004096  .00000572  00000+0  15776-2 0  9992","tle2":"2 55156  87.8882  19.5039 0001973  81.4735 278.6616 13.11416926166878"},{"id":"55157","name":"ONEWEB-0616","tle1":"1 55157U 23004T   26176.26820556  .00000079  00000+0  17083-3 0  9995","tle2":"2 55157  87.9134   4.2599 0000936 101.5443 258.5794 13.17649160168768"},{"id":"55158","name":"ONEWEB-0617","tle1":"1 55158U 23004U   26176.07817439 -.00002460  00000+0 -69783-2 0  9992","tle2":"2 55158  87.8892  19.4963 0001762  69.5168 290.6149 13.11430373166898"},{"id":"55159","name":"ONEWEB-0618","tle1":"1 55159U 23004V   26176.25902756  .00005898  00000+0  33031-3 0  9994","tle2":"2 55159  86.9099 174.3577 0009381 260.4376  99.5805 15.13198314183487"},{"id":"55160","name":"ONEWEB-0619","tle1":"1 55160U 23004W   26176.22433235  .00000115  00000+0  26390-3 0  9991","tle2":"2 55160  87.9145   4.2497 0001737  75.6210 284.5114 13.17650034168659"},{"id":"55161","name":"ONEWEB-0620","tle1":"1 55161U 23004X   26176.07307673  .00000027  00000+0  41614-4 0  9990","tle2":"2 55161  87.8882  19.5070 0001987  93.4291 266.7064 13.11417705166864"},{"id":"55162","name":"ONEWEB-0621","tle1":"1 55162U 23004Y   26176.25280725  .00000478  00000+0  13142-2 0  9992","tle2":"2 55162  87.8890  19.4605 0001957  81.1247 279.0102 13.11414789166868"},{"id":"55163","name":"ONEWEB-0622","tle1":"1 55163U 23004Z   26176.25789484  .00000281  00000+0  75779-3 0  9996","tle2":"2 55163  87.8890  19.4620 0002550  83.5146 276.6272 13.11414262166856"},{"id":"55164","name":"ONEWEB-0623","tle1":"1 55164U 23004AA  26176.21925655  .00000099  00000+0  22177-3 0  9996","tle2":"2 55164  87.9131   4.2801 0002339  72.1768 287.9619 13.17650563168649"},{"id":"55165","name":"ONEWEB-0624","tle1":"1 55165U 23004AB  26176.19683365 -.00000299  00000+0 -85965-3 0  9991","tle2":"2 55165  87.8946 348.9904 0001867  88.5291 271.6052 13.12928445169129"},{"id":"55166","name":"ONEWEB-0625","tle1":"1 55166U 23004AC  26176.05727238  .00000083  00000+0  17937-3 0  9998","tle2":"2 55166  87.9134   4.3082 0001653  88.5005 271.6316 13.17649780168619"},{"id":"55167","name":"ONEWEB-0626","tle1":"1 55167U 23004AD  26176.27494919  .00000084  00000+0  18368-3 0  9990","tle2":"2 55167  87.9132   4.2646 0002065 100.7657 259.3707 13.17656872168641"},{"id":"55168","name":"ONEWEB-0627","tle1":"1 55168U 23004AE  26176.26314146  .00000092  00000+0  20463-3 0  9991","tle2":"2 55168  87.9131   4.2675 0002127  77.2759 282.8611 13.17648172168642"},{"id":"55169","name":"ONEWEB-0628","tle1":"1 55169U 23004AF  26176.18121543  .00000009  00000+0 -10463-4 0  9999","tle2":"2 55169  87.8950 349.0628 0002142  74.7071 285.4294 13.12440751169088"},{"id":"55170","name":"ONEWEB-0629","tle1":"1 55170U 23004AG  26176.23866994  .00000061  00000+0  12421-3 0  9995","tle2":"2 55170  87.9132   4.2681 0001760  79.7175 280.4155 13.17648331168648"},{"id":"55171","name":"ONEWEB-0631","tle1":"1 55171U 23004AH  26176.14439769  .00000005  00000+0 -18880-4 0  9997","tle2":"2 55171  87.9174 333.8522 0002349  98.8982 261.2417 13.18685792170725"},{"id":"55172","name":"ONEWEB-0709","tle1":"1 55172U 23004AJ  26176.06290252 -.00000355  00000+0 -10387-2 0  9992","tle2":"2 55172  87.8879  19.5112 0002116 112.0162 248.1191 13.11418415166908"},{"id":"55173","name":"ONEWEB-0710","tle1":"1 55173U 23004AK  26176.25300748  .00000125  00000+0  28971-3 0  9998","tle2":"2 55173  87.9128   4.2608 0002007  87.2844 272.8517 13.17650164168641"},{"id":"55174","name":"ONEWEB-0711","tle1":"1 55174U 23004AL  26176.26297785  .00000154  00000+0  39851-3 0  9997","tle2":"2 55174  87.8882  19.4586 0002422  76.1598 283.9800 13.11414240166895"},{"id":"55175","name":"ONEWEB-0713","tle1":"1 55175U 23004AM  26176.05273171 -.00000451  00000+0 -13093-2 0  9999","tle2":"2 55175  87.8887  19.5020 0002147  80.7937 279.3434 13.11416830166852"},{"id":"55176","name":"ONEWEB-0715","tle1":"1 55176U 23004AN  26176.04763788 -.00000354  00000+0 -10344-2 0  9995","tle2":"2 55176  87.8887  19.5035 0002245 102.3493 257.7886 13.11414640166898"},{"id":"55177","name":"ONEWEB-0716","tle1":"1 55177U 23004AP  26176.24625743 -.00000004  00000+0 -42262-4 0  9994","tle2":"2 55177  87.9132   4.2648 0001624  90.4996 269.6322 13.17649768168648"},{"id":"55178","name":"ONEWEB-0717","tle1":"1 55178U 23004AQ  26176.22939375  .00000094  00000+0  20802-3 0  9994","tle2":"2 55178  87.9145   4.2563 0002395  84.9939 275.1466 13.17649317168696"},{"id":"55179","name":"ONEWEB-0719","tle1":"1 55179U 23004AR  26176.23951976  .00000094  00000+0  20898-3 0  9992","tle2":"2 55179  87.9139   4.2349 0001721  86.2241 273.9087 13.17649945168642"},{"id":"55796","name":"ONEWEB-0530","tle1":"1 55796U 23029A   26176.27166859  .00000016  00000+0  63323-5 0  9992","tle2":"2 55796  87.9185 272.8571 0002249  89.0225 271.1166 13.20771762162219"}]