OBJECT_NAME,OBJECT_ID,EPOCH,MEAN_MOTION,ECCENTRICITY,INCLINATION,RA_OF_ASC_NODE,ARG_OF_PERICENTER,MEAN_ANOMALY,EPHEMERIS_TYPE,CLASSIFICATION_TYPE,NORAD_CAT_ID,ELEMENT_SET_NO,REV_AT_EPOCH,BSTAR,MEAN_MOTION_DOT,MEAN_MOTION_DDOT
ONEWEB-0572,2023-004M,2026-06-25T06:21:20.978496,13.17648909,.00020185,87.9129,4.2581,93.8111,266.3251,0,U,55151,999,16854,.29456054E-4,.24E-6,0
ONEWEB-0573,2023-004N,2026-06-25T03:47:20.887296,13.18686962,.00024959,87.9167,333.8829,111.0439,249.0960,0,U,55152,999,17074,.18464494E-3,.86E-6,0
ONEWEB-0588,2023-004P,2026-06-25T03:37:38.675712,13.18686137,.00023717,87.9165,333.8842,92.9950,267.1454,0,U,55153,999,17074,.18490737E-3,.86E-6,0
ONEWEB-0598,2023-004Q,2026-06-25T02:16:59.155104,13.11427026,.00020428,87.8881,19.4939,107.9803,252.1548,0,U,55154,999,16693,-.46085887E-2,-.1621E-4,0
ONEWEB-0599,2023-004R,2026-06-25T05:25:27.770304,13.17649609,.00016653,87.9133,4.2644,94.2768,265.8553,0,U,55155,999,16854,.26047748E-3,.114E-5,0
ONEWEB-0614,2023-004S,2026-06-25T02:09:39.538944,13.11416926,.00019739,87.8882,19.5039,81.4735,278.6616,0,U,55156,999,16687,.15775575E-2,.572E-5,0
ONEWEB-0616,2023-004T,2026-06-25T06:26:12.960384,13.17649160,.00009367,87.9134,4.2599,101.5443,258.5794,0,U,55157,999,16876,.17082646E-3,.79E-6,0
ONEWEB-0617,2023-004U,2026-06-25T01:52:34.267296,13.11430373,.00017622,87.8892,19.4963,69.5168,290.6149,0,U,55158,999,16689,-.69783287E-2,-.246E-4,0
ONEWEB-0618,2023-004V,2026-06-25T06:12:59.981184,15.13198314,.00093816,86.9099,174.3577,260.4376,99.5805,0,U,55159,999,18348,.33030962E-3,.5898E-4,0
ONEWEB-0619,2023-004W,2026-06-25T05:23:02.315040,13.17650034,.00017375,87.9145,4.2497,75.6210,284.5114,0,U,55160,999,16865,.26390442E-3,.115E-5,0
ONEWEB-0620,2023-004X,2026-06-25T01:45:13.829472,13.11417705,.0001987,87.8882,19.5070,93.4291,266.7064,0,U,55161,999,16686,.41613947E-4,.27E-6,0
ONEWEB-0621,2023-004Y,2026-06-25T06:04:02.546400,13.11414789,.00019578,87.8890,19.4605,81.1247,279.0102,0,U,55162,999,16686,.13142265E-2,.478E-5,0
ONEWEB-0622,2023-004Z,2026-06-25T06:11:22.114176,13.11414262,.00025506,87.8890,19.4620,83.5146,276.6272,0,U,55163,999,16685,.75779402E-3,.281E-5,0
ONEWEB-0623,2023-004AA,2026-06-25T05:15:43.765920,13.17650563,.00023393,87.9131,4.2801,72.1768,287.9619,0,U,55164,999,16864,.22177081E-3,.99E-6,0
ONEWEB-0624,2023-004AB,2026-06-25T04:43:26.427360,13.12928445,.00018673,87.8946,348.9904,88.5291,271.6052,0,U,55165,999,16912,-.8596527E-3,-.299E-5,0
ONEWEB-0625,2023-004AC,2026-06-25T01:22:28.333632,13.17649780,.00016533,87.9134,4.3082,88.5005,271.6316,0,U,55166,999,16861,.17937302E-3,.83E-6,0
ONEWEB-0626,2023-004AD,2026-06-25T06:35:55.610016,13.17656872,.00020656,87.9132,4.2646,100.7657,259.3707,0,U,55167,999,16864,.18367743E-3,.84E-6,0
ONEWEB-0627,2023-004AE,2026-06-25T06:18:55.422144,13.17648172,.00021277,87.9131,4.2675,77.2759,282.8611,0,U,55168,999,16864,.20463032E-3,.92E-6,0
ONEWEB-0628,2023-004AF,2026-06-25T04:20:57.013152,13.12440751,.00021429,87.8950,349.0628,74.7071,285.4294,0,U,55169,999,16908,-.10463446E-4,.9E-7,0
ONEWEB-0629,2023-004AG,2026-06-25T05:43:41.082816,13.17648331,.000176,87.9132,4.2681,79.7175,280.4155,0,U,55170,999,16864,.12420663E-3,.61E-6,0
ONEWEB-0631,2023-004AH,2026-06-25T03:27:55.960416,13.18685792,.00023493,87.9174,333.8522,98.8982,261.2417,0,U,55171,999,17072,-.18880055E-4,.5E-7,0
ONEWEB-0709,2023-004AJ,2026-06-25T01:30:34.777728,13.11418415,.00021165,87.8879,19.5112,112.0162,248.1191,0,U,55172,999,16690,-.10387075E-2,-.355E-5,0
ONEWEB-0710,2023-004AK,2026-06-25T06:04:19.846272,13.17650164,.00020074,87.9128,4.2608,87.2844,272.8517,0,U,55173,999,16864,.28971383E-3,.125E-5,0
ONEWEB-0711,2023-004AL,2026-06-25T06:18:41.286240,13.11414240,.00024226,87.8882,19.4586,76.1598,283.9800,0,U,55174,999,16689,.3985082E-3,.154E-5,0
ONEWEB-0713,2023-004AM,2026-06-25T01:15:56.019744,13.11416830,.00021474,87.8887,19.5020,80.7937,279.3434,0,U,55175,999,16685,-.13093473E-2,-.451E-5,0
ONEWEB-0715,2023-004AN,2026-06-25T01:08:35.912832,13.11414640,.00022456,87.8887,19.5035,102.3493,257.7886,0,U,55176,999,16689,-.10344448E-2,-.354E-5,0
ONEWEB-0716,2023-004AP,2026-06-25T05:54:36.641952,13.17649768,.00016246,87.9132,4.2648,90.4996,269.6322,0,U,55177,999,16864,-.42261939E-4,-.4E-7,0
ONEWEB-0717,2023-004AQ,2026-06-25T05:30:19.620000,13.17649317,.00023952,87.9145,4.2563,84.9939,275.1466,0,U,55178,999,16869,.20802475E-3,.94E-6,0
ONEWEB-0719,2023-004AR,2026-06-25T05:44:54.507264,13.17649945,.00017215,87.9139,4.2349,86.2241,273.9087,0,U,55179,999,16864,.20897885E-3,.94E-6,0
ONEWEB-0530,2023-029A,2026-06-25T06:31:12.166176,13.20771762,.00022496,87.9185,272.8571,89.0225,271.1166,0,U,55796,999,16221,.6332291E-5,.16E-6,0
